OSCAR 7 (AO-7)          
1 07530U 74089B   20285.90842852 -.00000021  00000-0  15070-3 0  9998
2 07530 101.8159 255.0579 0012304 138.3376 278.5011 12.53645540100589
UOSAT 2 (UO-11)         
1 14781U 84021B   20285.93463924  .00000103  00000-0  18745-4 0  9996
2 14781  97.5911 292.1168 0008634 168.6181 191.5230 14.83198276949097
LUSAT (LO-19)           
1 20442U 90005G   20285.84162856  .00000003  00000-0  17403-4 0  9995
2 20442  98.7040 233.5447 0011886 167.0672 193.0819 14.32962829605281
EYESAT A (AO-27)        
1 22825U 93061C   20285.93477282  .00000001  00000-0  18506-4 0  9992
2 22825  98.9269 291.3359 0009138  43.5294 316.6607 14.30094442410469
ITAMSAT (IO-26)         
1 22826U 93061D   20285.96379843  .00000006  00000-0  20098-4 0  9994
2 22826  98.9209 291.2996 0009485  31.8819 328.2935 14.30431054410702
RADIO ROSTO (RS-15)     
1 23439U 94085A   20285.92715049 -.00000054  00000-0 -33151-3 0  9998
2 23439  64.8157  57.8913 0152238  20.4589 340.2345 11.27569120 62313
JAS-2 (FO-29)           
1 24278U 96046B   20285.85196116 -.00000022  00000-0  11205-4 0  9990
2 24278  98.5892  20.4762 0351256  73.5323 290.4108 13.53099782192870
TECHSAT 1B (GO-32)      
1 25397U 98043D   20285.89885177 -.00000007  00000-0  16192-4 0  9991
2 25397  98.7377 226.5557 0002391  84.5817 275.5634 14.23692021156126
ISS (ZARYA)             
1 25544U 98067A   20286.55599597  .00000320  00000-0  13835-4 0  9991
2 25544  51.6443 127.7296 0001368  25.7228   0.5164 15.49296946250214
PCSAT (NO-44)           
1 26931U 01043C   20285.92285190 -.00000038  00000-0  17357-4 0  9991
2 26931  67.0517 201.8289 0006700 276.2642  83.7696 14.30590058993736
SAUDISAT 1C (SO-50)     
1 27607U 02058C   20285.86501519 -.00000017  00000-0  17887-4 0  9993
2 27607  64.5574  18.4476 0034398 136.7147 223.6668 14.75666522957908
CUTE-1 (CO-55)          
1 27844U 03031E   20286.42572370  .00000057  00000-0  45322-4 0  9992
2 27844  98.6837 292.4011 0010965  78.4021 281.8387 14.22260624896762
CUBESAT XI-IV (CO-57)   
1 27848U 03031J   20285.85311720  .00000042  00000-0  38966-4 0  9992
2 27848  98.6900 292.4025 0010885  91.2534 268.9891 14.21844546896514
MOZHAYETS 4 (RS-22)     
1 27939U 03042A   20286.43948244  .00000163  00000-0  37791-4 0  9996
2 27939  98.1069  59.8177 0012592 349.9626  10.1340 14.66893491911168
CUBESAT XI-V            
1 28895U 05043F   20286.37228227  .00000133  00000-0  34511-4 0  9990
2 28895  98.0266  59.5653 0015475 272.2045  87.7386 14.63808059797941
CUTE-1.7+APD II (CO-65) 
1 32785U 08021C   20285.89699621  .00000231  00000-0  30447-4 0  9991
2 32785  97.5843 268.8577 0014501 105.3129 254.9692 14.88528189675197
DELFI-C3 (DO-64)        
1 32789U 08021G   20285.66589783  .00001389  00000-0  94202-4 0  9991
2 32789  97.4077 324.3538 0010353 277.7312  82.2741 15.07992079679425
SEEDS II (CO-66)        
1 32791U 08021J   20285.56173685  .00000227  00000-0  28178-4 0  9992
2 32791  97.5499 274.6378 0014863  77.1422 283.1457 14.91128786675688
YUBILEINY (RS-30)       
1 32953U 08025A   20286.41985569  .00000037  00000-0  19437-3 0  9999
2 32953  82.5068 205.1660 0018893 155.3110 204.8882 12.43098527562161
KKS-1 (KISEKI)          
1 33499U 09002H   20285.88385412  .00000076  00000-0  19120-4 0  9995
2 33499  98.3010 143.7963 0010262 110.7704 249.4604 14.75566023629752
SWISSCUBE               
1 35932U 09051B   20285.94139388  .00000136  00000-0  41730-4 0  9998
2 35932  98.6114 111.9908 0008453 125.1258 235.0732 14.56432566586784
BEESAT-1                
1 35933U 09051C   20285.78050534  .00000114  00000-0  36747-4 0  9994
2 35933  98.6100 113.6916 0006494 135.4626 224.7094 14.56503419586911
ITUPSAT1                
1 35935U 09051E   20286.46225750  .00000089  00000-0  31563-4 0  9998
2 35935  98.6205 114.5784 0008814 135.4349 224.7557 14.55645442586727
XIWANG-1 (HOPE-1)       
1 36122U 09072B   20286.14803707 -.00000024  00000-0  47841-4 0  9995
2 36122 100.1024 271.4420 0007327 319.4697  40.5870 13.16356953520229
JUGNU                   
1 37839U 11058B   20285.70630528  .00000333  00000-0  35450-4 0  9993
2 37839  19.9618 297.7587 0018712 229.5610 288.2167 14.12690995465246
SRMSAT                  
1 37841U 11058D   20286.43350689  .00000359  00000-0  52122-4 0  9997
2 37841  19.9734   0.0951 0012000  88.5409   3.2506 14.10675627464795
M-CUBED & EXP-1 PRIME   
1 37855U 11061F   20286.00748717  .00001092  00000-0  60940-4 0  9994
2 37855 101.7254  74.5765 0169990  88.9452 273.1231 15.06632126489220
STRAND-1                
1 39090U 13009E   20285.51135967  .00000037  00000-0  28069-4 0  9997
2 39090  98.4461 127.3078 0008216 304.2113  55.8293 14.35147298399359
SOMP                    
1 39134U 13015E   20285.93802608  .00001364  00000-0  69431-4 0  9994
2 39134  64.8618 259.8881 0023268 226.2108 133.7096 15.21352543413398
BEESAT-3                
1 39135U 13015F   20286.42166674  .00000750  00000-0  45775-4 0  9999
2 39135  64.8659 283.5954 0028868 224.5266 135.3541 15.18417894413363
BEESAT-2                
1 39136U 13015G   20286.12088207  .00001106  00000-0  63602-4 0  9997
2 39136  64.8738 289.9630 0035301 267.3244  92.3842 15.17811012413213
ZACUBE-1 (TSHEPISOSAT)  
1 39417U 13066B   20285.88805507  .00000200  00000-0  31513-4 0  9997
2 39417  97.5728 277.4762 0057286 255.8246 103.6598 14.81331856372272
GOMX-1                  
1 39430U 13066Q   20286.22236039  .00000196  00000-0  44364-4 0  9991
2 39430  97.7957 217.7289 0150596 176.2002 184.0386 14.59446257366838
CUBEBUG-2 (LO-74)       
1 39440U 13066AA  20285.88552331  .00000254  00000-0  42231-4 0  9995
2 39440  97.6440 262.0269 0079222 323.1507  36.4274 14.76068127369750
FUNCUBE-1 (AO-73)       
1 39444U 13066AE  20285.88592400  .00000244  00000-0  36246-4 0  9998
2 39444  97.5661 279.7644 0056439 247.2437 112.2807 14.82196906370619
UWE-3                   
1 39446U 13066AG  20285.94545535  .00000208  00000-0  34271-4 0  9990
2 39446  97.6096 269.2249 0068471 290.3162  69.0701 14.78600985369782
SPROUT                  
1 39770U 14029E   20286.37033005  .00000775  00000-0  90688-4 0  9995
2 39770  97.9036  32.2043 0008214 309.5986  50.4486 14.87902734346444
UNISAT-6                
1 40012U 14033C   20286.15392554  .00000167  00000-0  32134-4 0  9991
2 40012  97.6971 135.3155 0057956 344.5882  15.3560 14.74164887339619
DUCHIFAT-1              
1 40021U 14033M   20286.39086422  .00000273  00000-0  33445-4 0  9995
2 40021  97.9469 218.3690 0011366 262.1366  97.8561 14.90999298343315
QB50P1                  
1 40025U 14033R   20286.37015758  .00000219  00000-0  29174-4 0  9995
2 40025  97.9155 210.6653 0010955 276.1291  83.8678 14.89205496343008
NUDT-PHONESAT           
1 40900U 15049B   20286.51107245  .00002160  00000-0  90512-4 0  9995
2 40900  97.4313 296.4775 0010895 297.1984 214.4087 15.24568774281023
ZDPS 2A                 
1 40901U 15049C   20286.38288701  .00001117  00000-0  57314-4 0  9992
2 40901  97.4644 290.5823 0012751 333.5258 138.1596 15.18536821280311
ZDPS 2B                 
1 40902U 15049D   20286.36560005  .00001131  00000-0  58003-4 0  9993
2 40902  97.4647 287.8373 0012621 330.8066 142.8365 15.18539159280286
XW-2A                   
1 40903U 15049E   20286.41683466  .00001855  00000-0  43212-4 0  9996
2 40903  97.2748 335.3944 0012210 190.3867 296.4019 15.43531159284514
KAITUO 1A               
1 40904U 15049F   20286.44878655  .00000266  00000-0  17373-4 0  9990
2 40904  97.4816 285.7606 0014277 344.8203 173.4112 15.15809993279965
2015-049G               
1 40905U 15049G   20286.41492779  .00000316  00000-0  20651-4 0  9996
2 40905  97.4913 282.8838 0015281 342.1165 123.8564 15.14647579279782
XW-2C                   
1 40906U 15049H   20286.39842236  .00000845  00000-0  47119-4 0  9996
2 40906  97.4818 286.0581 0014189 335.3469 134.3101 15.16212922279972
XW-2D                   
1 40907U 15049J   20286.44852140  .00000552  00000-0  31755-4 0  9992
2 40907  97.4801 285.8336 0013396 331.6402 186.8646 15.16461085280003
LILACSAT-2              
1 40908U 15049K   20286.42218519  .00000225  00000-0  15938-4 0  9999
2 40908  97.4972 283.9990 0015771 343.4298 122.4762 15.14123445279692
XW-2F                   
1 40910U 15049M   20286.43331185  .00000950  00000-0  49744-4 0  9995
2 40910  97.4718 288.5660 0013738 320.1447 147.3555 15.18164874280083
XW-2B                   
1 40911U 15049N   20286.36284584  .00000584  00000-0  33468-4 0  9997
2 40911  97.4812 286.4472 0013464 333.6022 133.4250 15.16384683279885
KAITUO 1B               
1 40912U 15049P   20286.31175356  .00001121  00000-0  54261-4 0  9991
2 40912  97.4494 292.7017 0013222 294.0197 191.6474 15.20588803280478
TIANWANG 1C (TW-1C)     
1 40926U 15051B   20286.40102278  .00032175  00000-0  25003-3 0  9996
2 40926  97.0702 339.2614 0004851  26.1787  99.8992 15.71708388285352
TIANWANG 1A (TW-1A)     
1 40928U 15051D   20286.54219363  .00002751  00000-0  63631-4 0  9994
2 40928  97.1026 311.5166 0012011 113.9938  38.9517 15.43252449283423
LAPAN-A2                
1 40931U 15052B   20286.12879887  .00000774  00000-0  18756-4 0  9997
2 40931   6.0002 223.3203 0012507 129.6874 230.4285 14.76646027272530
E-ST@R-II               
1 41459U 16025D   20286.55579295  .00001816  00000-0  94138-4 0  9997
2 41459  98.1131  42.7374 0163973 177.2608 182.9565 15.06750431245071
AAUSAT 4                
1 41460U 16025E   20286.11138527  .00003425  00000-0  16760-3 0  9992
2 41460  98.1109  45.0303 0152949 166.0775 194.4738 15.09222376245231
NUSAT-1 (FRESCO)        
1 41557U 16033B   20286.40652959  .00001267  00000-0  48549-4 0  9993
2 41557  97.4011  15.8780 0014671  39.1270  31.3260 15.28297835243639
BEESAT-4                
1 41619U 16040W   20286.15591823  .00001342  00000-0  57651-4 0  9992
2 41619  97.3070 342.8668 0012466 123.8032 236.4394 15.24311623227172
